NORAD_CAT_ID,OBJECT_NAME,OBJECT_TYPE,EPOCH,MEAN_MOTION,ECCENTRICITY,INCLINATION,RA_OF_ASC_NODE,ARG_OF_PERICENTER,MEAN_ANOMALY,BSTAR,MEAN_MOTION_DOT,MEAN_MOTION_DDOT,TLE_LINE0,TLE_LINE1,TLE_LINE2,SEMIMAJOR_AXIS,PERIOD,APOGEE,PERIGEE,DECAYED
53411.0,STARLINK-4497,PAYLOAD,2023-03-12 03:49:53,15.08878092,0.0001269,53.2168,343.1679,54.2206,305.8904,0.0015209,0.00024025,0.0,0 STARLINK-4497,1 53411U 22097Z   23071.15964490  .00024025  00000-0  15209-2 0  9997,2 53411  53.2168 343.1679 0001269  54.2206 305.8904 15.08878092 33565,6917.764,95.435,540.507,538.751,0.0
53411.0,STARLINK-4497,PAYLOAD,2023-03-12 18:08:21,15.08852088,0.0001275,53.216,340.4925,76.5262,283.5872,0.00079481,0.00012388,0.0,0 STARLINK-4497,1 53411U 22097Z   23071.75580601  .00012388  00000-0  79481-3 0  9993,2 53411  53.2160 340.4925 0001275  76.5262 283.5872 15.08852088 33166,6917.843,95.437,540.59,538.826,0.0
53411.0,STARLINK-4497,PAYLOAD,2023-03-13 03:40:40,15.08859984,0.0001948,53.2177,338.7088,60.6188,299.4998,0.00066071,0.00010249,0.0,0 STARLINK-4497,1 53411U 22097Z   23072.15324350  .00010249  00000-0  66071-3 0  9990,2 53411  53.2177 338.7088 0001948  60.6188 299.4998 15.08859984 33710,6917.819,95.436,541.032,538.337,0.0
53411.0,STARLINK-4497,PAYLOAD,2023-03-14 03:31:28,15.0883249,0.0001584,53.2184,334.2446,79.5498,280.5673,0.00071168,0.00011054,0.0,0 STARLINK-4497,1 53411U 22097Z   23073.14685843  .00011054  00000-0  71168-3 0  9995,2 53411  53.2184 334.2446 0001584  79.5498 280.5673 15.08832490 33372,6917.903,95.438,540.864,538.673,0.0
53411.0,STARLINK-4497,PAYLOAD,2023-03-15 03:22:14,15.08889669,0.0001524,53.2182,329.7873,90.63,269.4867,0.001886,0.00029896,0.0,0 STARLINK-4497,1 53411U 22097Z   23074.14044507  .00029896  00000-0  18860-2 0  9994,2 53411  53.2182 329.7873 0001524  90.6300 269.4867 15.08889669 33521,6917.729,95.434,540.648,538.539,0.0
53411.0,STARLINK-4497,PAYLOAD,2023-03-15 22:26:52,15.08848776,0.0001074,53.218,326.2202,106.8098,253.3012,0.0011386,0.00017884,0.0,0 STARLINK-4497,1 53411U 22097Z   23074.93532664  .00017884  00000-0  11386-2 0  9997,2 53411  53.2180 326.2202 0001074 106.8098 253.3012 15.08848776 34137,6917.854,95.437,540.462,538.976,0.0
53411.0,STARLINK-4497,PAYLOAD,2023-03-16 01:37:38,15.08855392,9.8e-05,53.2179,325.6255,75.1073,285.0027,0.0015989,0.00025261,0.0,0 STARLINK-4497,1 53411U 22097Z   23075.06780655  .00025261  00000-0  15989-2 0  9998,2 53411  53.2179 325.6255 0000980  75.1073 285.0027 15.08855392 33669,6917.833,95.437,540.376,539.02,0.0
53411.0,STARLINK-4497,PAYLOAD,2023-03-16 06:23:47,15.08874786,5.97e-05,53.2164,324.7276,80.0715,280.0344,0.0018829,0.00029834,0.0,0 STARLINK-4497,1 53411U 22097Z   23075.26652030  .00029834  00000-0  18829-2 0  9991,2 53411  53.2164 324.7276 0000597  80.0715 280.0344 15.08874786 33696,6917.774,95.435,540.052,539.226,0.0
53411.0,STARLINK-4497,PAYLOAD,2023-03-16 20:42:17,15.0881929,0.000154,53.2162,322.056,17.8146,342.29,0.00078981,0.00012297,0.0,0 STARLINK-4497,1 53411U 22097Z   23075.86270051  .00012297  00000-0  78981-3 0  9997,2 53411  53.2162 322.0560 0001540  17.8146 342.2900 15.08819290 34279,6917.944,95.439,540.874,538.743,0.0
53411.0,STARLINK-4497,PAYLOAD,2023-03-16 22:17:40,15.08813673,0.0001167,53.2162,321.7587,44.6385,315.4701,0.00066394,0.00010287,0.0,0 STARLINK-4497,1 53411U 22097Z   23075.92894062  .00010287  00000-0  66394-3 0  9990,2 53411  53.2162 321.7587 0001167  44.6385 315.4701 15.08813673 33798,6917.961,95.439,540.633,539.019,0.0
53411.0,STARLINK-4497,PAYLOAD,2023-03-17 09:25:22,15.08831802,8.81e-05,53.2162,319.6761,64.4485,295.6598,0.001062,0.0001665,0.0,0 STARLINK-4497,1 53411U 22097Z   23076.39262327  .00016650  00000-0  10620-2 0  9995,2 53411  53.2162 319.6761 0000881  64.4485 295.6598 15.08831802 34351,6917.905,95.438,540.38,539.161,0.0
53411.0,STARLINK-4497,PAYLOAD,2023-03-17 15:46:55,15.0884761,0.0001048,53.2156,318.4878,51.9017,308.207,0.0013765,0.00021691,0.0,0 STARLINK-4497,1 53411U 22097Z   23076.65758330  .00021691  00000-0  13765-2 0  9992,2 53411  53.2156 318.4878 0001048  51.9017 308.2070 15.08847610 33908,6917.857,95.437,540.447,538.997,0.0
53411.0,STARLINK-4497,PAYLOAD,2023-03-17 22:08:27,15.08863791,0.0001064,53.2156,317.2987,49.3434,310.7651,0.0016109,0.00025459,0.0,0 STARLINK-4497,1 53411U 22097Z   23076.92253971  .00025459  00000-0  16109-2 0  9994,2 53411  53.2156 317.2987 0001064  49.3434 310.7651 15.08863791 34438,6917.808,95.436,540.409,538.937,0.0
53411.0,STARLINK-4497,PAYLOAD,2023-03-18 09:16:09,15.08859217,0.0001022,53.2163,315.2159,57.4398,302.6692,0.00084149,0.00013137,0.0,0 STARLINK-4497,1 53411U 22097Z   23077.38621655  .00013137  00000-0  84149-3 0  9993,2 53411  53.2163 315.2159 0001022  57.4398 302.6692 15.08859217 34015,6917.822,95.436,540.394,538.98,0.0
53411.0,STARLINK-4497,PAYLOAD,2023-03-18 20:23:51,15.08848557,0.0001347,53.2156,313.136,62.4912,297.6217,0.00095066,0.00014878,0.0,0 STARLINK-4497,1 53411U 22097Z   23077.84989852  .00014878  00000-0  95066-3 0  9993,2 53411  53.2156 313.1360 0001347  62.4912 297.6217 15.08848557 34084,6917.854,95.437,540.651,538.787,0.0
53411.0,STARLINK-4497,PAYLOAD,2023-03-18 21:59:14,15.08851681,0.0001557,53.2157,312.8383,69.2688,290.8471,0.00096791,0.00015155,0.0,0 STARLINK-4497,1 53411U 22097Z   23077.91613826  .00015155  00000-0  96791-3 0  9991,2 53411  53.2157 312.8383 0001557  69.2688 290.8471 15.08851681 34588,6917.845,95.437,540.787,538.633,0.0
53411.0,STARLINK-4497,PAYLOAD,2023-03-19 09:06:56,15.08854301,0.0001255,53.2153,310.7567,57.0872,303.024,0.00076518,0.00011916,0.0,0 STARLINK-4497,1 53411U 22097Z   23078.37981586  .00011916  00000-0  76518-3 0  9999,2 53411  53.2153 310.7567 0001255  57.0872 303.0240 15.08854301 34651,6917.837,95.437,540.57,538.833,0.0
53411.0,STARLINK-4497,PAYLOAD,2023-03-19 15:28:28,15.08856163,0.000168,53.2155,309.567,69.3316,290.7857,0.00091404,0.00014295,0.0,0 STARLINK-4497,1 53411U 22097Z   23078.64477719  .00014295  00000-0  91404-3 0  9991,2 53411  53.2155 309.5670 0001680  69.3316 290.7857 15.08856163 34200,6917.831,95.437,540.858,538.534,0.0
53411.0,STARLINK-4497,PAYLOAD,2023-03-19 21:50:01,15.0885262,0.000132,53.2171,308.3772,76.3402,283.7737,0.00045972,7.039e-05,0.0,0 STARLINK-4497,1 53411U 22097Z   23078.90973491  .00007039  00000-0  45972-3 0  9995,2 53411  53.2171 308.3772 0001320  76.3402 283.7737 15.08852620 34734,6917.842,95.437,540.62,538.794,0.0
53411.0,STARLINK-4497,PAYLOAD,2023-03-20 01:00:47,15.08854215,0.0001424,53.2169,307.7817,79.1884,280.9268,0.00048125,7.382e-05,0.0,0 STARLINK-4497,1 53411U 22097Z   23079.04221357  .00007382  00000-0  48125-3 0  9992,2 53411  53.2169 307.7817 0001424  79.1884 280.9268 15.08854215 34262,6917.837,95.437,540.687,538.717,0.0
53411.0,STARLINK-4497,PAYLOAD,2023-03-20 18:30:01,15.08848445,0.0001105,53.2158,304.5096,68.5433,291.5677,0.0002994,4.481e-05,0.0,0 STARLINK-4497,1 53411U 22097Z   23079.77085366  .00004481  00000-0  29940-3 0  9991,2 53411  53.2158 304.5096 0001105  68.5433 291.5677 15.08848445 34868,6917.855,95.437,540.484,538.955,0.0
53411.0,STARLINK-4497,PAYLOAD,2023-03-20 21:40:48,15.08842493,0.0001293,53.2166,303.9141,80.5479,279.5659,0.0002883,4.304e-05,0.0,0 STARLINK-4497,1 53411U 22097Z   23079.90333531  .00004304  00000-0  28830-3 0  9997,2 53411  53.2166 303.9141 0001293  80.5479 279.5659 15.08842493 34394,6917.873,95.437,540.632,538.843,0.0
53411.0,STARLINK-4497,PAYLOAD,2023-03-21 00:51:34,15.08846531,0.0001282,53.216,303.3201,74.5587,285.5547,0.00011251,1.503e-05,0.0,0 STARLINK-4497,1 53411U 22097Z   23080.03581248  .00001503  00000-0  11251-3 0  9990,2 53411  53.2160 303.3201 0001282  74.5587 285.5547 15.08846531 34907,6917.86,95.437,540.612,538.839,0.0
53411.0,STARLINK-4497,PAYLOAD,2023-03-21 21:31:34,15.0884173,9.54e-05,53.2156,299.4558,83.2992,276.8109,5.4318e-05,5.77e-06,0.0,0 STARLINK-4497,1 53411U 22097Z   23080.89693287  .00000577  00000-0  54318-4 0  9993,2 53411  53.2156 299.4558 0000954  83.2992 276.8109 15.08841730 35032,6917.875,95.437,540.4,539.08,0.0
53411.0,STARLINK-4497,PAYLOAD,2023-03-22 00:42:21,15.08846331,0.0001051,53.2159,298.8597,78.3722,281.7388,7.2943e-05,8.73e-06,0.0,0 STARLINK-4497,1 53411U 22097Z   23081.02941008  .00000873  00000-0  72943-4 0  9999,2 53411  53.2159 298.8597 0001051  78.3722 281.7388 15.08846331 34569,6917.861,95.437,540.453,538.999,0.0
53411.0,STARLINK-4497,PAYLOAD,2023-03-22 19:46:59,15.08838292,0.0001231,53.2164,295.2893,100.1986,259.9145,4.7677e-05,4.71e-06,0.0,0 STARLINK-4497,1 53411U 22097Z   23081.82429539  .00000471  00000-0  47677-4 0  9997,2 53411  53.2164 295.2893 0001231 100.1986 259.9145 15.08838292 34689,6917.886,95.438,540.602,538.899,0.0
53411.0,STARLINK-4497,PAYLOAD,2023-03-22 21:22:22,15.08841778,9.81e-05,53.2156,294.9955,88.3526,271.7578,1.1462e-05,-1.05e-06,0.0,0 STARLINK-4497,1 53411U 22097Z   23081.89053282 -.00000105  00000-0  11462-4 0  9990,2 53411  53.2156 294.9955 0000981  88.3526 271.7578 15.08841778 35184,6917.875,95.437,540.419,539.061,0.0
53411.0,STARLINK-4497,PAYLOAD,2023-03-23 19:37:45,15.08858346,9.64e-05,53.2154,290.8319,86.6915,273.4187,0.0002903,4.338e-05,0.0,0 STARLINK-4497,1 53411U 22097Z   23082.81788573  .00004338  00000-0  29030-3 0  9991,2 53411  53.2154 290.8319 0000964  86.6915 273.4187 15.08858346 34830,6917.824,95.436,540.356,539.022,0.0
53411.0,STARLINK-4497,PAYLOAD,2023-03-23 21:13:08,15.0886743,8.57e-05,53.2145,290.5329,106.4996,253.609,0.00057479,8.879e-05,0.0,0 STARLINK-4497,1 53411U 22097Z   23082.88412227  .00008879  00000-0  57479-3 0  9990,2 53411  53.2145 290.5329 0000857 106.4996 253.6090 15.08867430 35332,6917.797,95.436,540.254,539.069,0.0
53411.0,STARLINK-4497,PAYLOAD,2023-03-24 00:23:54,15.08870746,9.89e-05,53.2143,289.9382,122.5791,237.5297,0.00057375,8.863e-05,0.0,0 STARLINK-4497,1 53411U 22097Z   23083.01659778  .00008863  00000-0  57375-3 0  9998,2 53411  53.2143 289.9382 0000989 122.5791 237.5297 15.08870746 34860,6917.786,95.436,540.336,538.967,0.0
